OBJECT_NAME,OBJECT_ID,EPOCH,MEAN_MOTION,ECCENTRICITY,INCLINATION,RA_OF_ASC_NODE,ARG_OF_PERICENTER,MEAN_ANOMALY,EPHEMERIS_TYPE,CLASSIFICATION_TYPE,NORAD_CAT_ID,ELEMENT_SET_NO,REV_AT_EPOCH,BSTAR,MEAN_MOTION_DOT,MEAN_MOTION_DDOT
STARLINK-36429,2026-003Y,2026-06-14T08:26:51.719136,15.27592026,.0001888,42.9973,41.4763,265.6871,94.3765,0,U,67356,999,2360,.98345E-3,.2691E-3,0
STARLINK-36456,2026-003Z,2026-06-13T22:30:27.961632,15.27597010,.0001785,43.0012,43.5203,277.4216,82.6433,0,U,67357,999,2354,.58846E-3,.15975E-3,0
STARLINK-36466,2026-003AA,2026-06-14T08:58:06.860064,15.27580442,.0001155,43.0024,40.7694,277.8753,82.1968,0,U,67358,999,2361,.63439E-3,.17236E-3,0
STARLINK-36499,2026-003AB,2026-06-14T08:39:49.529088,15.27565579,.0003313,43.0005,41.5451,264.4972,95.5502,0,U,67359,999,2360,.97381E-3,.26623E-3,0
STARLINK-36469,2026-003AC,2026-06-14T08:34:15.739104,15.27593318,.0002164,43.0005,41.5155,262.7008,97.3598,0,U,67360,999,2360,.87937E-3,.24025E-3,0
STARLINK-35306,2026-003AD,2026-06-13T22:21:12.985920,15.27652158,.0000695,43.0040,43.4717,172.8374,187.2488,0,U,67361,999,2354,.95779E-3,.26246E-3,0
STARLINK-36428,2026-003AE,2026-06-13T22:17:31.299072,15.27584721,.0005351,43.0064,43.4531,279.5066,80.5181,0,U,67362,999,2354,.7997E-3,.21819E-3,0
STARLINK-36484,2026-005A,2026-06-13T23:07:12.766944,15.27585822,.0000569,43.0043,53.9965,268.3224,91.7563,0,U,67404,999,2342,.72225E-3,.19669E-3,0
STARLINK-36452,2026-005B,2026-06-13T22:59:49.413984,15.27570848,.0001446,42.9984,53.9508,252.4480,107.6214,0,U,67405,999,2342,.832E-3,.22697E-3,0
STARLINK-36409,2026-005C,2026-06-13T23:53:28.154400,15.27585266,.00008761,43.0123,54.2448,286.8439,73.2317,0,U,67406,999,2342,.67731524E-3,.18425E-3,0
STARLINK-36510,2026-005D,2026-06-14T09:09:11.441088,15.27568307,.0000252,43.0071,51.9742,246.1443,113.9382,0,U,67407,999,2348,.6393E-3,.17365E-3,0
STARLINK-36509,2026-005E,2026-06-13T23:22:00.624576,15.27564069,.0002163,42.9997,54.0710,265.5264,94.5341,0,U,67408,999,2341,.23821129E-3,.6295E-4,0
STARLINK-36507,2026-005F,2026-06-14T00:04:34.266432,15.27587445,.00004701,43.0128,54.2957,345.2530,14.8308,0,U,67409,999,2342,.67711953E-3,.18421E-3,0
STARLINK-36508,2026-005G,2026-06-14T09:44:19.262400,15.27587139,.0001252,43.0055,52.1607,291.7545,68.3173,0,U,67410,999,2348,.80996E-3,.22098E-3,0
STARLINK-36503,2026-005H,2026-06-14T08:52:31.094976,15.27587109,.0001483,43.0074,51.8839,111.7814,248.3195,0,U,67411,999,2348,.81688E-3,.22289E-3,0
STARLINK-36446,2026-005J,2026-06-14T09:01:45.206688,15.27583505,.0001826,43.0002,51.9388,260.8134,99.2511,0,U,67412,999,2348,.5984E-3,.16243E-3,0
STARLINK-36442,2026-005K,2026-06-13T23:10:54.469344,15.27592526,.0000572,43.0050,54.0130,147.6248,212.4639,0,U,67413,999,2342,.8739E-3,.23873E-3,0
STARLINK-36506,2026-005L,2026-06-12T23:45:57.465216,15.27599054,.00019365,43.0089,59.5904,280.9502,79.1131,0,U,67414,999,2327,.61772442E-3,.16785E-3,0
STARLINK-36468,2026-005M,2026-06-14T09:40:36.829056,15.27584428,.000184,43.0077,52.1365,279.0785,80.9859,0,U,67415,999,2348,.85206E-3,.23262E-3,0
STARLINK-36487,2026-005N,2026-06-14T09:33:12.790944,15.27583970,.0001187,43.0061,52.1004,285.5286,74.5435,0,U,67416,999,2348,.75902E-3,.20685E-3,0
STARLINK-36374,2026-005P,2026-06-14T09:14:42.148320,15.27591373,.0002091,42.9993,52.0023,261.9001,98.1613,0,U,67417,999,2348,.89543E-3,.24469E-3,0
STARLINK-36455,2026-005Q,2026-06-14T09:03:35.078112,15.27601280,.0002559,42.9907,51.9360,266.9931,93.0627,0,U,67418,999,2348,.84646E-3,.2312E-3,0
STARLINK-36424,2026-005R,2026-06-13T23:16:27.835104,15.27587609,.0003789,43.0035,54.0417,281.7960,78.2466,0,U,67419,999,2342,.84595E-3,.23098E-3,0
STARLINK-35564,2026-005S,2026-06-14T09:11:00.153888,15.27586874,.0002,42.9958,51.9764,280.0697,79.9929,0,U,67420,999,2348,.87406E-3,.23874E-3,0
STARLINK-36431,2026-005T,2026-06-14T09:38:44.749248,15.27586197,.0004364,43.0061,52.1297,263.4913,96.5442,0,U,67421,999,2348,.79033E-3,.21558E-3,0
STARLINK-36418,2026-005U,2026-06-13T23:05:21.690240,15.27589801,.0004312,43.0072,53.9814,279.1369,80.8995,0,U,67422,999,2342,.9333E-3,.25521E-3,0
STARLINK-36465,2026-005V,2026-06-14T09:27:39.197952,15.27598166,.0001747,43.0041,52.0717,269.8282,90.2370,0,U,67423,999,2348,.3785E-3,.10173E-3,0
STARLINK-36362,2026-005W,2026-06-14T09:07:18.454080,15.27585351,.000128,43.0013,51.9560,280.7610,79.3097,0,U,67424,999,2348,.76896E-3,.20962E-3,0
STARLINK-36447,2026-005X,2026-06-13T09:23:50.742528,15.27634021,.00019019,43.0049,57.4420,255.0546,105.0096,0,U,67425,999,2333,.93690585E-3,.25652E-3,0
STARLINK-36146,2026-005Y,2026-06-14T09:46:09.748128,15.27587483,.0002098,43.0050,52.1640,272.7583,87.3029,0,U,67426,999,2347,.84084E-3,.22954E-3,0
